GALAXY 33 (G-33)        
1 54026U 22128A   26170.54169454  .00000073  00000+0  00000+0 0  9994
2 54026   0.0196  49.2747 0001703  35.1210 245.3737  1.00270256 13762
GALAXY 34 (G-34)        
1 54027U 22128B   26169.64307292  .00000052  00000+0  00000+0 0  9995
2 54027   0.0104  30.3042 0001513  67.6466 271.4326  1.00274211 13920
ANGOSAT 2               
1 54033U 22131A   26168.61616823  .00000130  00000+0  00000+0 0  9992
2 54033   0.0320  83.0963 0000715  28.7776  38.8139  1.00272126 13480
EUTELSAT HOTBIRD 13F    
1 54048U 22134A   26170.53896878  .00000081  00000+0  00000+0 0  9990
2 54048   0.0478 295.9100 0002089  61.3104 117.5805  1.00271695 13408
LDPE-2                  
1 54219U 22144A   26170.41919488  .00000119  00000+0  00000+0 0  9993
2 54219   5.6194  63.6372 0001856 100.3943  99.1318  1.00533431 11862
EUTELSAT HOTBIRD 13G    
1 54225U 22146A   26170.53896878  .00000081  00000+0  00000+0 0  9990
2 54225   0.0469 225.3137 0001921 317.5041 291.9687  1.00270916  7494
ZHONGXING-19            
1 54230U 22148A   26170.56884514 -.00000087  00000+0  00000+0 0  9992
2 54230   0.0163  33.5626 0002405  77.7169 164.4867  1.00271718 13400
GALAXY 31 (G-31)        
1 54243U 22153A   26170.48239339  .00000007  00000+0  00000+0 0  9993
2 54243   0.0221  84.1069 0001134 356.0720 240.1743  1.00271861  7155
GALAXY 32 (G-32)        
1 54244U 22153B   26170.51851536 -.00000180  00000+0  00000+0 0  9990
2 54244   0.0139  28.6200 0002069   7.7601 327.0277  1.00271630 13169
EUTELSAT 10B            
1 54259U 22157A   26169.89687935  .00000061  00000+0  00000+0 0  9996
2 54259   0.0649  97.2261 0001155  12.1338 130.6241  1.00265775 13041
GALAXY 35 (G-35)        
1 54741U 22170A   26170.51808203 -.00000168  00000+0  00000+0 0  9990
2 54741   0.0133  66.3445 0001847  18.4425 276.3511  1.00271924 12916
GALAXY 36 (G-36)        
1 54742U 22170B   26170.51886203 -.00000191  00000+0  00000+0 0  9993
2 54742   0.0040 322.4331 0002538 121.0454 282.0519  1.00272164 12790
METEOSAT-12 (MTG-I1)    
1 54743U 22170C   26170.25128105 -.00000014  00000+0  00000+0 0  9999
2 54743   0.7410  23.3589 0003264  71.0263 263.1532  1.00273203 12992
SHIJIAN-23 (SJ-23)      
1 55131U 23002A   26170.73141398 -.00000270  00000+0  00000+0 0  9992
2 55131   3.7250  78.2832 0003795 274.4825 324.9183  1.00087198 12535
APSTAR-6E               
1 55239U 23005A   26169.69134051 -.00000324  00000+0  00000+0 0  9995
2 55239   0.0387 247.7467 0000913 297.0745 104.9723  1.00270657 18708
USA 342                 
1 55263U 23008A   26166.33502449  .00000142  00000+0  00000+0 0  9990
2 55263   0.0090  64.0068 0000187 223.8693 120.1932  1.00270392 12493
LDPE-3A                 
1 55264U 23008B   26170.48239339  .00000067  00000+0  00000+0 0  9993
2 55264   2.3548  81.6371 0001172  58.9378 182.4523  0.99145292 11832
ELEKTRO-L 4             
1 55506U 23016A   26169.79766459 -.00000065  00000+0  00000+0 0  9990
2 55506   0.0750 160.5421 0000852  15.8590 183.5871  1.00270891 12359
AMAZONAS NEXUS          
1 55508U 23017A   26169.52633323 -.00000289  00000+0  00000+0 0  9995
2 55508   0.0374  36.3998 0005220  35.4429 323.4129  1.00275843  7059
ZHONGXING-26            
1 55686U 23023A   26169.80316922 -.00000360  00000+0  00000+0 0  9993
2 55686   0.0695  70.8286 0003389  15.8874 234.5879  1.00269988 12249
LUCH-5X (OLYMP-K 2)     
1 55841U 23031A   26170.76185551  .00000027  00000+0  00000+0 0  9993
2 55841   0.0305  68.8181 0000831 134.2967  41.1254  1.00272255 11967
GAOFEN-13 02            
1 55912U 23036A   26170.64755260 -.00000225  00000+0  00000+0 0  9995
2 55912   1.0209   1.5023 0004019 336.5172 311.2539  1.00270147 12119
SES-18                  
1 55970U 23038A   26169.62130794 -.00000107  00000+0  00000+0 0  9995
2 55970   0.0169 299.6964 0000121 324.7472 122.9796  1.00271473 12118
SES-19                  
1 55971U 23038B   26170.01080968  .00000081  00000+0  00000+0 0  9998
2 55971   0.0144  27.2034 0001476  56.2664  52.7628  1.00272311 12115
INTELSAT 40E (IS-40E)   
1 56174U 23052A   26169.62483850 -.00000180  00000+0  00000+0 0  9993
2 56174   0.0142  44.4220 0001943  81.4139 274.9633  1.00271281 11830
VIASAT-3 F1             
1 56370U 23060A   26169.80603065  .00000000  00000+0  00000+0 0  9992
2 56370   0.0244 348.3269 0001035  90.7537  29.1751  1.00270504 11453
ARCTURUS                
1 56371U 23060B   26170.55084218 -.00000070  00000+0  00000+0 0  9998
2 56371   2.7811  79.9248 0002614  52.3761  46.2798  1.00272412 11488
GS-1                    
1 56372U 23060C   26169.72235685 -.00000232  00000+0  00000+0 0  9992
2 56372   2.7297  79.8139 0003742 281.5832 255.0259  1.00274169  7559
BEIDOU-3 G4             
1 56564U 23066A   26170.63551192 -.00000287  00000+0  00000+0 0  9997
2 56564   0.4834 332.1808 0004426 179.3704 125.1354  1.00273040 11414
ARABSAT-7B (BADR-8)     
1 56757U 23075A   26169.97132794  .00000138  00000+0  00000+0 0  9993
2 56757   0.0752  28.6288 0004420 356.1824 258.0734  1.00269738 11130
NVS-01 (IRNSS-1J)       
1 56759U 23076A   26170.27695447 -.00000343  00000+0  00000+0 0  9999
2 56759   2.1602 244.2432 0003074  35.9095 216.4487  1.00263943 11137
